GLOBALSTAR M068         
1 32266U 07048D   26022.94089579 -.00000047  00000+0  31422-3 0  9997
2 32266  51.9908 352.3650 0000708 270.3147 124.2658 12.62838672845321
GLOBALSTAR M079         
1 37188U 10054A   26022.93541979 -.00000110  00000+0 -37282-4 0  9995
2 37188  52.0014 190.8376 0001209  83.7266  81.6409 12.62270031704204
GLOBALSTAR M074         
1 37189U 10054B   26022.88268072 -.00000106  00000+0 -14769-4 0  9990
2 37189  51.9990 190.2871 0001175  99.7588  65.0780 12.62265600704806
GLOBALSTAR M076         
1 37190U 10054C   26022.90913345 -.00000088  00000+0  87789-4 0  9995
2 37190  52.0003 190.3978 0001301  95.3195  69.2096 12.62269893704524
GLOBALSTAR M077         
1 37191U 10054D   26022.69660446 -.00000060  00000+0  32053-3 0  9996
2 37191  51.9942 188.8157 0001717  91.8850 281.4413 11.68178015704145
GLOBALSTAR M075         
1 37192U 10054E   26022.99744458 -.00000094  00000+0  56201-4 0  9995
2 37192  51.9923 232.2645 0000943  80.6383  66.4841 12.62263910703608
GLOBALSTAR M073         
1 37193U 10054F   26022.84578184 -.00000091  00000+0  72456-4 0  9998
2 37193  52.0049 146.7133 0001110 100.5301  75.3358 12.62268949705577
GLOBALSTAR M083         
1 37739U 11033A   26022.61857351 -.00000077  00000+0  14872-3 0  9994
2 37739  51.9863  95.8335 0000761 104.5058  60.1967 12.62266715674568
GLOBALSTAR M088         
1 37740U 11033B   26022.95952950 -.00000088  00000+0  89463-4 0  9995
2 37740  52.0236   0.8694 0000252  75.0168 319.4690 12.62271796670158
GLOBALSTAR M091         
1 37741U 11033C   26022.60704957 -.00000074  00000+0  16752-3 0  9995
2 37741  52.0023 325.1260 0000541  42.2331 128.7483 12.62268897670894
GLOBALSTAR M085         
1 37742U 11033D   26022.95511005 -.00000067  00000+0  20324-3 0  9996
2 37742  52.0122 275.2323 0000910  52.5573 321.3619 12.62268597671454
GLOBALSTAR M081         
1 37743U 11033E   26022.98109925 -.00000062  00000+0  23576-3 0  9991
2 37743  51.9962 277.7527 0000940  67.0416 305.9727 12.62261657671603
GLOBALSTAR M089         
1 37744U 11033F   26022.62978402 -.00000101  00000+0  15696-4 0  9996
2 37744  51.9907 233.0092 0001109  95.8681 299.6538 12.62263793672407
GLOBALSTAR M084         
1 38040U 11080A   26022.58902751 -.00000075  00000+0  16314-3 0  9994
2 38040  52.0009 100.5360 0000966 128.9017  20.7700 12.62267268650376
GLOBALSTAR M080         
1 38041U 11080B   26022.96121302 -.00000079  00000+0  13624-3 0  9997
2 38041  52.0061 101.0713 0000236 106.4992  64.9548 12.62265557650544
GLOBALSTAR M082         
1 38042U 11080C   26022.57943734 -.00000085  00000+0  10478-3 0  9997
2 38042  52.0083  57.7186 0000139  78.6379  86.9076 12.62266877651201
GLOBALSTAR M092         
1 38043U 11080D   26022.79040624 -.00000081  00000+0  12684-3 0  9995
2 38043  52.0074 147.4642 0000891 107.7445  56.8978 12.62269553649689
GLOBALSTAR M090         
1 38044U 11080E   26022.44189093 -.00000088  00000+0  87118-4 0  9994
2 38044  52.0132  52.0468 0000416  94.7497  44.2199 12.62266089651306
GLOBALSTAR M086         
1 38045U 11080F   26022.46738686 -.00000098  00000+0  33270-4 0  9996
2 38045  51.9905  52.1360 0001492  92.5411  54.5296 12.62282173651250
GLOBALSTAR M097         
1 39072U 13005A   26022.85955380 -.00000087  00000+0  95699-4 0  9992
2 39072  52.0069 325.7261 0000703  58.9927 301.1008 12.62268263598554
GLOBALSTAR M093         
1 39073U 13005B   26022.83336618 -.00000071  00000+0  18170-3 0  9999
2 39073  52.0128 319.0988 0000911  48.1933 311.9011 12.62271942598508
GLOBALSTAR M094         
1 39074U 13005C   26022.59581874 -.00000089  00000+0  82969-4 0  9996
2 39074  51.9936 234.0847 0001171  70.0740 290.0253 12.62266503600082
GLOBALSTAR M096         
1 39075U 13005D   26022.68800436 -.00000069  00000+0  19449-3 0  9995
2 39075  52.0080 282.4894 0000936  54.9727 305.1227 12.62262391599018
GLOBALSTAR M078         
1 39076U 13005E   26022.89939063 -.00000096  00000+0  41262-4 0  9997
2 39076  51.9894   6.0555 0000693 328.5861  31.4965 12.62273767597669
GLOBALSTAR M095         
1 39077U 13005F   26022.92582348 -.00000102  00000+0  11853-4 0  9993
2 39077  52.0100   3.3731 0000561  20.7272 339.3617 12.62267858597522
GLOBALSTAR M087         
1 52888U 22064A   26022.78064142 -.00000084  00000+0  11015-3 0  9992
2 52888  51.9989 145.1363 0000910  92.8627 267.2344 12.62262459172772
